{
  "type": "FeatureCollection",
  "features": [
    {
      "type": "Feature",
      "properties": {
        "norad_id": 43262,
        "name": "GAOFEN-1 04",
        "group": "resource",
        "lat": 9.30196958227788,
        "lon": 49.488233841196234,
        "alt_km": 641.8651855804719,
        "timestamp": "2025-12-18T23:35:48.704810+00:00",
        "meta_object_name": "GAOFEN-1 04",
        "meta_object_id": "2018-031D",
        "meta_epoch": "2025-12-18T15:25:19.114176",
        "meta_mean_motion": 14.7646104,
        "meta_eccentricity": 8.427e-05,
        "meta_inclination": 98.0807,
        "meta_ra_of_asc_node": 50.4809,
        "meta_arg_of_pericenter": 61.7286,
        "meta_mean_anomaly": 298.4008,
        "meta_ephemeris_type": 0,
        "meta_classification_type": "U",
        "meta_norad_cat_id": 43262,
        "meta_element_set_no": 999,
        "meta_rev_at_epoch": 41604,
        "meta_bstar": 7.1306338e-05,
        "meta_mean_motion_dot": 4.44e-06,
        "meta_mean_motion_ddot": 0,
        "tle_line1": "1 43262U 18031D   25352.64258234  .00000444  00000+0  71306-4 0  9993",
        "tle_line2": "2 43262  98.0807  50.4809 0000842  61.7286 298.4008 14.76461040416040"
      },
      "geometry": {
        "type": "Point",
        "coordinates": [
          49.488233841196234,
          9.30196958227788
        ]
      }
    },
    {
      "type": "Feature",
      "properties": {
        "norad_id": 43437,
        "name": "SENTINEL-3B",
        "group": "resource",
        "lat": 38.97800131777596,
        "lon": -114.86578116506793,
        "alt_km": 798.8576712051872,
        "timestamp": "2025-12-18T23:35:48.704821+00:00",
        "meta_object_name": "SENTINEL-3B",
        "meta_object_id": "2018-039A",
        "meta_epoch": "2025-12-18T14:31:31.948896",
        "meta_mean_motion": 14.26736233,
        "meta_eccentricity": 0.00016195,
        "meta_inclination": 98.6261,
        "meta_ra_of_asc_node": 57.7064,
        "meta_arg_of_pericenter": 95.816,
        "meta_mean_anomaly": 264.3205,
        "meta_ephemeris_type": 0,
        "meta_classification_type": "U",
        "meta_norad_cat_id": 43437,
        "meta_element_set_no": 999,
        "meta_rev_at_epoch": 39837,
        "meta_bstar": 6.6264256e-05,
        "meta_mean_motion_dot": 1.17e-06,
        "meta_mean_motion_ddot": 0,
        "tle_line1": "1 43437U 18039A   25352.60523089  .00000117  00000+0  66264-4 0  9998",
        "tle_line2": "2 43437  98.6261  57.7064 0001619  95.8160 264.3205 14.26736233398379"
      },
      "geometry": {
        "type": "Point",
        "coordinates": [
          -114.86578116506793,
          38.97800131777596
        ]
      }
    },
    {
      "type": "Feature",
      "properties": {
        "norad_id": 43461,
        "name": "GAOFEN-5 01",
        "group": "resource",
        "lat": 14.40033736797346,
        "lon": 138.2426351158196,
        "alt_km": 693.101211341851,
        "timestamp": "2025-12-18T23:35:48.704831+00:00",
        "meta_object_name": "GAOFEN-5 01",
        "meta_object_id": "2018-043A",
        "meta_epoch": "2025-12-18T11:19:54.722496",
        "meta_mean_motion": 14.60415951,
        "meta_eccentricity": 6.174e-05,
        "meta_inclination": 98.4332,
        "meta_ra_of_asc_node": 315.5396,
        "meta_arg_of_pericenter": 309.3122,
        "meta_mean_anomaly": 50.8023,
        "meta_ephemeris_type": 0,
        "meta_classification_type": "U",
        "meta_norad_cat_id": 43461,
        "meta_element_set_no": 999,
        "meta_rev_at_epoch": 40531,
        "meta_bstar": 8.3916457e-05,
        "meta_mean_motion_dot": 3.58e-06,
        "meta_mean_motion_ddot": 0,
        "tle_line1": "1 43461U 18043A   25352.47216114  .00000358  00000+0  83916-4 0  9993",
        "tle_line2": "2 43461  98.4332 315.5396 0000617 309.3122  50.8023 14.60415951405312"
      },
      "geometry": {
        "type": "Point",
        "coordinates": [
          138.2426351158196,
          14.40033736797346
        ]
      }
    },
    {
      "type": "Feature",
      "properties": {
        "norad_id": 43484,
        "name": "GAOFEN-6",
        "group": "resource",
        "lat": 16.451296444806832,
        "lon": -120.63851188589187,
        "alt_km": 645.0798738633575,
        "timestamp": "2025-12-18T23:35:48.704841+00:00",
        "meta_object_name": "GAOFEN-6",
        "meta_object_id": "2018-048A",
        "meta_epoch": "2025-12-18T14:43:44.366016",
        "meta_mean_motion": 14.76576841,
        "meta_eccentricity": 0.0012938,
        "meta_inclination": 97.8031,
        "meta_ra_of_asc_node": 56.6837,
        "meta_arg_of_pericenter": 46.2807,
        "meta_mean_anomaly": 313.9473,
        "meta_ephemeris_type": 0,
        "meta_classification_type": "U",
        "meta_norad_cat_id": 43484,
        "meta_element_set_no": 999,
        "meta_rev_at_epoch": 40674,
        "meta_bstar": 0.00010795266,
        "meta_mean_motion_dot": 7.05e-06,
        "meta_mean_motion_ddot": 0,
        "tle_line1": "1 43484U 18048A   25352.61370794  .00000705  00000+0  10795-3 0  9994",
        "tle_line2": "2 43484  97.8031  56.6837 0012938  46.2807 313.9473 14.76576841406748"
      },
      "geometry": {
        "type": "Point",
        "coordinates": [
          -120.63851188589187,
          16.451296444806832
        ]
      }
    },
    {
      "type": "Feature",
      "properties": {
        "norad_id": 43585,
        "name": "GAOFEN-11 01",
        "group": "resource",
        "lat": 17.89154602826025,
        "lon": -121.80939825339603,
        "alt_km": 420.4584815955959,
        "timestamp": "2025-12-18T23:35:48.704852+00:00",
        "meta_object_name": "GAOFEN-11 01",
        "meta_object_id": "2018-063A",
        "meta_epoch": "2025-12-18T15:09:00.426816",
        "meta_mean_motion": 15.49389651,
        "meta_eccentricity": 0.00040595,
        "meta_inclination": 97.1561,
        "meta_ra_of_asc_node": 55.5169,
        "meta_arg_of_pericenter": 284.7898,
        "meta_mean_anomaly": 75.2903,
        "meta_ephemeris_type": 0,
        "meta_classification_type": "U",
        "meta_norad_cat_id": 43585,
        "meta_element_set_no": 999,
        "meta_rev_at_epoch": 41233,
        "meta_bstar": 0.00029529008,
        "meta_mean_motion_dot": 0.00016122,
        "meta_mean_motion_ddot": 0,
        "tle_line1": "1 43585U 18063A   25352.63125494  .00016122  00000+0  29529-3 0  9995",
        "tle_line2": "2 43585  97.1561  55.5169 0004059 284.7898  75.2903 15.49389651412331"
      },
      "geometry": {
        "type": "Point",
        "coordinates": [
          -121.80939825339603,
          17.89154602826025
        ]
      }
    },
    {
      "type": "Feature",
      "properties": {
        "norad_id": 43613,
        "name": "ICESAT-2",
        "group": "resource",
        "lat": 35.426251141670626,
        "lon": 63.850155141956975,
        "alt_km": 476.8035289520967,
        "timestamp": "2025-12-18T23:35:48.704862+00:00",
        "meta_object_name": "ICESAT-2",
        "meta_object_id": "2018-070A",
        "meta_epoch": "2025-12-18T13:32:17.447712",
        "meta_mean_motion": 15.28295146,
        "meta_eccentricity": 0.00028421,
        "meta_inclination": 92.0051,
        "meta_ra_of_asc_node": 242.309,
        "meta_arg_of_pericenter": 129.1846,
        "meta_mean_anomaly": 230.9656,
        "meta_ephemeris_type": 0,
        "meta_classification_type": "U",
        "meta_norad_cat_id": 43613,
        "meta_element_set_no": 999,
        "meta_rev_at_epoch": 40487,
        "meta_bstar": 0.00037024443,
        "meta_mean_motion_dot": 0.00010203,
        "meta_mean_motion_ddot": 0,
        "tle_line1": "1 43613U 18070A   25352.56409083  .00010203  00000+0  37024-3 0  9999",
        "tle_line2": "2 43613  92.0051 242.3090 0002842 129.1846 230.9656 15.28295146404870"
      },
      "geometry": {
        "type": "Point",
        "coordinates": [
          63.850155141956975,
          35.426251141670626
        ]
      }
    },
    {
      "type": "Feature",
      "properties": {
        "norad_id": 43719,
        "name": "HYSIS",
        "group": "resource",
        "lat": -64.162070769284,
        "lon": -140.97416376909217,
        "alt_km": 641.5211905210845,
        "timestamp": "2025-12-18T23:35:48.704872+00:00",
        "meta_object_name": "HYSIS",
        "meta_object_id": "2018-096A",
        "meta_epoch": "2025-12-18T14:22:13.561248",
        "meta_mean_motion": 14.78660009,
        "meta_eccentricity": 0.00011122,
        "meta_inclination": 98.0097,
        "meta_ra_of_asc_node": 55.5482,
        "meta_arg_of_pericenter": 51.5265,
        "meta_mean_anomaly": 308.6045,
        "meta_ephemeris_type": 0,
        "meta_classification_type": "U",
        "meta_norad_cat_id": 43719,
        "meta_element_set_no": 999,
        "meta_rev_at_epoch": 38073,
        "meta_bstar": 0.00011031683,
        "meta_mean_motion_dot": 7.56e-06,
        "meta_mean_motion_ddot": 0,
        "tle_line1": "1 43719U 18096A   25352.59876807  .00000756  00000+0  11032-3 0  9992",
        "tle_line2": "2 43719  98.0097  55.5482 0001112  51.5265 308.6045 14.78660009380735"
      },
      "geometry": {
        "type": "Point",
        "coordinates": [
          -140.97416376909217,
          -64.162070769284
        ]
      }
    }
  ]
}